NORAD_CAT_ID,OBJECT_NAME,OBJECT_TYPE,EPOCH,MEAN_MOTION,ECCENTRICITY,INCLINATION,RA_OF_ASC_NODE,ARG_OF_PERICENTER,MEAN_ANOMALY,BSTAR,MEAN_MOTION_DOT,MEAN_MOTION_DDOT,TLE_LINE0,TLE_LINE1,TLE_LINE2,SEMIMAJOR_AXIS,PERIOD,APOGEE,PERIGEE,DECAYED
52614.0,STARLINK-3982,PAYLOAD,2024-04-02 12:11:42,15.08837417,0.0001458,53.2178,199.2953,85.144,274.9719,0.00026247,3.891e-05,0.0,0 STARLINK-3982,1 52614U 22052S   24093.50813186  .00003891  00000-0  26247-3 0  9994,2 52614  53.2178 199.2953 0001458  85.1440 274.9719 15.08837417104754,6917.888,95.438,540.762,538.745,0.0
52614.0,STARLINK-3982,PAYLOAD,2024-04-02 13:47:05,15.08834239,0.0001368,53.2153,198.9966,89.8557,270.2592,0.00018227,2.614e-05,0.0,0 STARLINK-3982,1 52614U 22052S   24093.57437234  .00002614  00000-0  18227-3 0  9998,2 52614  53.2153 198.9966 0001368  89.8557 270.2592 15.08834239104394,6917.898,95.438,540.709,538.817,0.0
52614.0,STARLINK-3982,PAYLOAD,2024-04-02 16:57:52,15.08830475,0.0001304,53.2162,198.4045,87.9294,272.1847,6.5864e-05,7.6e-06,0.0,0 STARLINK-3982,1 52614U 22052S   24093.70685422  .00000760  00000-0  65864-4 0  9997,2 52614  53.2162 198.4045 0001304  87.9294 272.1847 15.08830475104419,6917.91,95.438,540.677,538.872,0.0
52614.0,STARLINK-3982,PAYLOAD,2024-04-02 23:19:25,15.08824457,0.0001313,53.216,197.2129,90.3847,269.7296,-6.1837e-05,-1.271e-05,0.0,0 STARLINK-3982,1 52614U 22052S   24093.97181776 -.00001271  00000-0 -61837-4 0  9995,2 52614  53.2160 197.2129 0001313  90.3847 269.7296 15.08824457104827,6917.928,95.439,540.701,538.885,0.0
52614.0,STARLINK-3982,PAYLOAD,2024-04-03 13:37:53,15.08844108,0.0001295,53.2152,194.5363,88.8255,271.2886,0.00032521,4.892e-05,0.0,0 STARLINK-3982,1 52614U 22052S   24094.56797564  .00004892  00000-0  32521-3 0  9996,2 52614  53.2152 194.5363 0001295  88.8255 271.2886 15.08844108104910,6917.868,95.437,540.629,538.837,0.0
52614.0,STARLINK-3982,PAYLOAD,2024-04-03 16:48:39,15.08847881,0.0001176,53.2152,193.9414,86.9232,273.1894,0.00044511,6.805e-05,0.0,0 STARLINK-3982,1 52614U 22052S   24094.70045541  .00006805  00000-0  44511-3 0  9991,2 52614  53.2152 193.9414 0001176  86.9232 273.1894 15.08847881104564,6917.856,95.437,540.535,538.908,0.0
52614.0,STARLINK-3982,PAYLOAD,2024-04-04 13:28:39,15.08864178,0.000113,53.2154,190.0756,85.264,274.8481,0.00063175,9.787e-05,0.0,0 STARLINK-3982,1 52614U 22052S   24095.56156770  .00009787  00000-0  63175-3 0  9992,2 52614  53.2154 190.0756 0001130  85.2640 274.8481 15.08864178104690,6917.806,95.436,540.453,538.89,0.0
52614.0,STARLINK-3982,PAYLOAD,2024-04-05 05:22:30,15.08858485,0.000125,53.2159,187.1042,99.2914,260.822,0.00025663,3.801e-05,0.0,0 STARLINK-3982,1 52614U 22052S   24096.22396122  .00003801  00000-0  25663-3 0  9994,2 52614  53.2159 187.1042 0001250  99.2914 260.8220 15.08858485105165,6917.824,95.436,540.554,538.824,0.0
52614.0,STARLINK-3982,PAYLOAD,2024-04-05 13:19:25,15.0886057,0.0001207,53.2165,185.6171,100.0919,260.0209,-0.00013098,-2.373e-05,0.0,0 STARLINK-3982,1 52614U 22052S   24096.55515601 -.00002373  00000-0 -13098-3 0  9999,2 52614  53.2165 185.6171 0001207 100.0919 260.0209 15.08860570104847,6917.818,95.436,540.517,538.848,0.0
52614.0,STARLINK-3982,PAYLOAD,2024-04-06 05:13:17,15.08846851,0.0001731,53.2174,182.6444,58.3379,301.7781,1.1686e-05,-1.02e-06,0.0,0 STARLINK-3982,1 52614U 22052S   24097.21756300 -.00000102  00000-0  11686-4 0  9995,2 52614  53.2174 182.6444 0001731  58.3379 301.7781 15.08846851105311,6917.859,95.437,540.922,538.527,0.0
52614.0,STARLINK-3982,PAYLOAD,2024-04-06 09:59:26,15.08842466,0.0001429,53.2166,181.749,92.0456,268.07,-9.6162e-05,-1.818e-05,0.0,0 STARLINK-3982,1 52614U 22052S   24097.41628175 -.00001818  00000-0 -96162-4 0  9993,2 52614  53.2166 181.7490 0001429  92.0456 268.0700 15.08842466104973,6917.873,95.437,540.726,538.749,0.0
52614.0,STARLINK-3982,PAYLOAD,2024-04-06 22:42:32,15.0883583,0.0001449,53.2167,179.3707,91.6223,268.4935,5.5036e-05,5.88e-06,0.0,0 STARLINK-3982,1 52614U 22052S   24097.94620742  .00000588  00000-0  55036-4 0  9999,2 52614  53.2167 179.3707 0001449  91.6223 268.4935 15.08835830105058,6917.893,95.438,540.761,538.756,0.0
52614.0,STARLINK-3982,PAYLOAD,2024-04-07 09:50:14,15.0882961,0.0001503,53.2186,177.2901,88.6578,271.4587,-0.00011061,-2.047e-05,0.0,0 STARLINK-3982,1 52614U 22052S   24098.40989279 -.00002047  00000-0 -11061-3 0  9997,2 52614  53.2186 177.2901 0001503  88.6578 271.4587 15.08829610105496,6917.912,95.438,540.817,538.737,0.0
52614.0,STARLINK-3982,PAYLOAD,2024-04-07 11:25:38,15.08832755,0.0001237,53.2149,176.9906,95.5856,264.5277,-3.2578e-05,-8.06e-06,0.0,0 STARLINK-3982,1 52614U 22052S   24098.47613468 -.00000806  00000-0 -32578-4 0  9996,2 52614  53.2149 176.9906 0001237  95.5856 264.5277 15.08832755105130,6917.903,95.438,540.623,538.912,0.0
52614.0,STARLINK-3982,PAYLOAD,2024-04-07 22:33:20,15.08819342,0.0001375,53.2145,174.9084,103.4773,256.6372,0.00027438,4.079e-05,0.0,0 STARLINK-3982,1 52614U 22052S   24098.93981852  .00004079  00000-0  27438-3 0  9994,2 52614  53.2145 174.9084 0001375 103.4773 256.6372 15.08819342105204,6917.944,95.439,540.76,538.857,0.0
52614.0,STARLINK-3982,PAYLOAD,2024-04-08 11:16:24,15.08842425,0.0001398,53.2138,172.5292,95.5846,264.5305,0.00013638,1.883e-05,0.0,0 STARLINK-3982,1 52614U 22052S   24099.46972637  .00001883  00000-0  13638-3 0  9991,2 52614  53.2138 172.5292 0001398  95.5846 264.5305 15.08842425105659,6917.873,95.437,540.705,538.771,0.0
52614.0,STARLINK-3982,PAYLOAD,2024-04-08 14:27:10,15.08843335,0.0001411,53.2137,171.9345,95.363,264.7523,0.00014354,1.997e-05,0.0,0 STARLINK-3982,1 52614U 22052S   24099.60220600  .00001997  00000-0  14354-3 0  9995,2 52614  53.2137 171.9345 0001411  95.3630 264.7523 15.08843335105302,6917.87,95.437,540.711,538.759,0.0
52614.0,STARLINK-3982,PAYLOAD,2024-04-08 22:24:06,15.08839815,0.0001354,53.2144,170.4485,93.9494,266.1653,0.00019639,2.839e-05,0.0,0 STARLINK-3982,1 52614U 22052S   24099.93340690  .00002839  00000-0  19639-3 0  9990,2 52614  53.2144 170.4485 0001354  93.9494 266.1653 15.08839815105350,6917.881,95.438,540.683,538.809,0.0
52614.0,STARLINK-3982,PAYLOAD,2024-04-09 11:07:11,15.08839484,0.0001361,53.2161,168.0695,96.4506,263.6641,0.00018461,2.651e-05,0.0,0 STARLINK-3982,1 52614U 22052S   24100.46333001  .00002651  00000-0  18461-3 0  9993,2 52614  53.2161 168.0695 0001361  96.4506 263.6641 15.08839484105806,6917.882,95.438,540.688,538.805,0.0
52614.0,STARLINK-3982,PAYLOAD,2024-04-10 14:08:44,15.08852186,0.0001317,53.2172,163.0182,85.503,274.6113,2.0879e-05,4.4e-07,0.0,0 STARLINK-3982,1 52614U 22052S   24101.58940333  .00000044  00000-0  20879-4 0  9990,2 52614  53.2172 163.0182 0001317  85.5030 274.6113 15.08852186105604,6917.843,95.437,540.619,538.797,0.0
52614.0,STARLINK-3982,PAYLOAD,2024-04-11 04:27:13,15.08836112,0.0001411,53.2169,160.3381,87.8099,272.3054,1.4326e-05,-6e-07,0.0,0 STARLINK-3982,1 52614U 22052S   24102.18557351 -.00000060  00000-0  14326-4 0  9990,2 52614  53.2169 160.3381 0001411  87.8099 272.3054 15.08836112106067,6917.892,95.438,540.733,538.781,0.0
52614.0,STARLINK-3982,PAYLOAD,2024-04-11 10:48:45,15.08841045,0.000134,53.2167,159.1502,92.2823,267.8322,5.1786e-05,5.36e-06,0.0,0 STARLINK-3982,1 52614U 22052S   24102.45052901  .00000536  00000-0  51786-4 0  9999,2 52614  53.2167 159.1502 0001340  92.2823 267.8322 15.08841045105733,6917.877,95.437,540.669,538.815,0.0
52614.0,STARLINK-3982,PAYLOAD,2024-04-11 20:21:04,15.08835433,0.0001323,53.2165,157.3678,92.1783,267.9361,1.3403e-05,-7.5e-07,0.0,0 STARLINK-3982,1 52614U 22052S   24102.84797426 -.00000075  00000-0  13403-4 0  9993,2 52614  53.2165 157.3678 0001323  92.1783 267.9361 15.08835433105794,6917.894,95.438,540.675,538.844,0.0
52614.0,STARLINK-3982,PAYLOAD,2024-04-12 09:04:10,15.08835362,0.0001401,53.2167,154.9888,91.7403,268.3749,8.2479e-06,-1.57e-06,0.0,0 STARLINK-3982,1 52614U 22052S   24103.37789635 -.00000157  00000-0  82479-5 0  9996,2 52614  53.2167 154.9888 0001401  91.7403 268.3749 15.08835362106240,6917.895,95.438,540.729,538.79,0.0
52614.0,STARLINK-3982,PAYLOAD,2024-04-13 10:30:22,15.08820893,0.0001738,53.2171,150.2314,68.501,291.6168,-4.5193e-05,-1.007e-05,0.0,0 STARLINK-3982,1 52614U 22052S   24104.43776282 -.00001007  00000-0 -45193-4 0  9995,2 52614  53.2171 150.2314 0001738  68.5010 291.6168 15.08820893106402,6917.939,95.439,541.006,538.601,0.0
52614.0,STARLINK-3982,PAYLOAD,2024-04-14 02:24:13,15.08833177,0.0001245,53.2154,147.248,94.3914,265.722,0.00015922,2.247e-05,0.0,0 STARLINK-3982,1 52614U 22052S   24105.10015135  .00002247  00000-0  15922-3 0  9994,2 52614  53.2154 147.2480 0001245  94.3914 265.7220 15.08833177106507,6917.901,95.438,540.628,538.905,0.0
52614.0,STARLINK-3982,PAYLOAD,2024-04-14 10:21:08,15.08815525,0.0001787,53.2165,145.7683,85.0602,275.0594,0.0008141,0.00012683,0.0,0 STARLINK-3982,1 52614U 22052S   24105.43135151  .00012683  00000-0  81410-3 0  9991,2 52614  53.2165 145.7683 0001787  85.0602 275.0594 15.08815525106188,6917.955,95.439,541.056,538.584,0.0
52614.0,STARLINK-3982,PAYLOAD,2024-04-15 02:14:59,15.08845568,0.0001716,53.2156,142.7968,68.2587,291.8588,0.0006888,0.00010693,0.0,0 STARLINK-3982,1 52614U 22052S   24106.09374862  .00010693  00000-0  68880-3 0  9993,2 52614  53.2156 142.7968 0001716  68.2587 291.8588 15.08845568106659,6917.863,95.437,540.915,538.541,0.0
52614.0,STARLINK-3982,PAYLOAD,2024-04-15 08:36:31,15.08856508,0.000178,53.2155,141.6068,70.7739,289.3445,0.00043027,6.569e-05,0.0,0 STARLINK-3982,1 52614U 22052S   24106.35870280  .00006569  00000-0  43027-3 0  9990,2 52614  53.2155 141.6068 0001780  70.7739 289.3445 15.08856508106329,6917.83,95.437,540.926,538.464,0.0
52614.0,STARLINK-3982,PAYLOAD,2024-04-15 19:44:13,15.08856174,0.0001799,53.2157,139.5266,69.9631,290.1554,0.00032386,4.872e-05,0.0,0 STARLINK-3982,1 52614U 22052S   24106.82237929  .00004872  00000-0  32386-3 0  9990,2 52614  53.2157 139.5266 0001799  69.9631 290.1554 15.08856174106395,6917.831,95.437,540.94,538.451,0.0
